NORAD_CAT_ID,OBJECT_NAME,OBJECT_TYPE,EPOCH,MEAN_MOTION,ECCENTRICITY,INCLINATION,RA_OF_ASC_NODE,ARG_OF_PERICENTER,MEAN_ANOMALY,BSTAR,MEAN_MOTION_DOT,MEAN_MOTION_DDOT,TLE_LINE0,TLE_LINE1,TLE_LINE2,SEMIMAJOR_AXIS,PERIOD,APOGEE,PERIGEE,DECAYED
52486.0,STARLINK-3918,PAYLOAD,2023-07-08 05:34:13,15.08847159,0.0001309,53.2166,118.1175,92.6398,267.4744,7.5143e-05,9.08e-06,0.0,0 STARLINK-3918,1 52486U 22049AM  23189.23210511  .00000908  00000-0  75143-4 0  9991,2 52486  53.2166 118.1175 0001309  92.6398 267.4744 15.08847159 65153,6917.859,95.437,540.629,538.818,0.0
52486.0,STARLINK-3918,PAYLOAD,2023-07-08 11:55:47,15.08838055,0.0001306,53.2172,116.9257,88.1858,271.9283,2.4241e-05,9.8e-07,0.0,0 STARLINK-3918,1 52486U 22049AM  23189.49707324  .00000098  00000-0  24241-4 0  9995,2 52486  53.2172 116.9257 0001306  88.1858 271.9283 15.08838055 65192,6917.886,95.438,540.655,538.848,0.0
52486.0,STARLINK-3918,PAYLOAD,2023-07-09 18:08:07,15.0883492,0.0001195,53.2175,111.2799,96.8715,263.2413,8.3767e-05,1.045e-05,0.0,0 STARLINK-3918,1 52486U 22049AM  23190.75563787  .00001045  00000-0  83767-4 0  9990,2 52486  53.2175 111.2799 0001195  96.8715 263.2413 15.08834920 65385,6917.896,95.438,540.588,538.934,0.0
52486.0,STARLINK-3918,PAYLOAD,2023-07-10 03:40:25,15.0884499,0.0001183,53.2177,109.4957,97.6223,262.4904,6.3034e-05,7.16e-06,0.0,0 STARLINK-3918,1 52486U 22049AM  23191.15307330  .00000716  00000-0  63034-4 0  9994,2 52486  53.2177 109.4957 0001183  97.6223 262.4904 15.08844990 65443,6917.865,95.437,540.549,538.912,0.0
52486.0,STARLINK-3918,PAYLOAD,2023-07-10 19:34:17,15.08836226,0.000109,53.2175,106.521,99.0872,261.0243,0.00015308,2.149e-05,0.0,0 STARLINK-3918,1 52486U 22049AM  23191.81547748  .00002149  00000-0  15308-3 0  9998,2 52486  53.2175 106.5210 0001090  99.0872 261.0243 15.08836226 65549,6917.892,95.438,540.511,539.003,0.0
52486.0,STARLINK-3918,PAYLOAD,2023-07-11 03:31:12,15.08844597,0.0001151,53.2176,105.0341,98.4761,261.6361,0.00018854,2.714e-05,0.0,0 STARLINK-3918,1 52486U 22049AM  23192.14667164  .00002714  00000-0  18854-3 0  9997,2 52486  53.2176 105.0341 0001151  98.4761 261.6361 15.08844597 65599,6917.866,95.437,540.528,538.935,0.0
52486.0,STARLINK-3918,PAYLOAD,2023-07-12 03:21:59,15.08845697,0.0001185,53.2171,100.5731,100.98,259.1325,6.3888e-05,7.29e-06,0.0,0 STARLINK-3918,1 52486U 22049AM  23193.14027396  .00000729  00000-0  63888-4 0  9997,2 52486  53.2171 100.5731 0001185 100.9800 259.1325 15.08845697 65748,6917.863,95.437,540.548,538.908,0.0
52486.0,STARLINK-3918,PAYLOAD,2023-07-13 00:02:00,15.08836248,7.7e-05,53.2164,96.708,96.7104,263.3976,5.2668e-05,5.51e-06,0.0,0 STARLINK-3918,1 52486U 22049AM  23194.00139975  .00000551  00000-0  52668-4 0  9997,2 52486  53.2164  96.7080 0000770  96.7104 263.3976 15.08836248 65876,6917.892,95.438,540.29,539.224,0.0
52486.0,STARLINK-3918,PAYLOAD,2023-07-13 20:42:01,15.08867618,0.0001065,53.2176,92.8406,93.197,266.9144,-0.00030349,-5.118e-05,0.0,0 STARLINK-3918,1 52486U 22049AM  23194.86251428 -.00005118  00000-0 -30349-3 0  9996,2 52486  53.2176  92.8406 0001065  93.1970 266.9144 15.08867618 66005,6917.796,95.436,540.398,538.924,0.0
52486.0,STARLINK-3918,PAYLOAD,2023-07-14 23:43:34,15.08848521,0.0001047,53.2177,87.7855,86.8401,273.2711,8.3184e-05,1.037e-05,0.0,0 STARLINK-3918,1 52486U 22049AM  23195.98859148  .00001037  00000-0  83184-4 0  9993,2 52486  53.2177  87.7855 0001047  86.8401 273.2711 15.08848521 66176,6917.854,95.437,540.444,538.995,0.0
52486.0,STARLINK-3918,PAYLOAD,2023-07-15 17:12:49,15.08836681,0.0001057,53.2176,84.5167,92.4073,267.704,-1.1846e-05,-4.76e-06,0.0,0 STARLINK-3918,1 52486U 22049AM  23196.71724250 -.00000476  00000-0 -11846-4 0  9994,2 52486  53.2176  84.5167 0001057  92.4073 267.7040 15.08836681 66284,6917.891,95.438,540.487,539.024,0.0
52486.0,STARLINK-3918,PAYLOAD,2023-07-16 23:25:09,15.08840147,9.85e-05,53.2178,78.8686,102.5979,257.5124,2.5499e-05,1.18e-06,0.0,0 STARLINK-3918,1 52486U 22049AM  23197.97580181  .00000118  00000-0  25499-4 0  9996,2 52486  53.2178  78.8686 0000985 102.5979 257.5124 15.08840147 66478,6917.88,95.438,540.426,539.064,0.0
52486.0,STARLINK-3918,PAYLOAD,2023-07-17 21:40:32,15.08844172,9.64e-05,53.2182,74.7042,90.9424,269.1679,0.0001689,2.402e-05,0.0,0 STARLINK-3918,1 52486U 22049AM  23198.90315614  .00002402  00000-0  16890-3 0  9999,2 52486  53.2182  74.7042 0000964  90.9424 269.1679 15.08844172 66618,6917.868,95.437,540.4,539.066,0.0
52486.0,STARLINK-3918,PAYLOAD,2023-07-18 19:55:57,15.08834739,0.0001072,53.2177,70.5421,101.1276,258.9837,3.991e-05,3.47e-06,0.0,0 STARLINK-3918,1 52486U 22049AM  23199.83052712  .00000347  00000-0  39910-4 0  9994,2 52486  53.2177  70.5421 0001072 101.1276 258.9837 15.08834739 66753,6917.896,95.438,540.503,539.02,0.0
52486.0,STARLINK-3918,PAYLOAD,2023-07-19 02:17:29,15.08843384,9.95e-05,53.2181,69.3512,99.0191,261.0914,5.6884e-05,6.18e-06,0.0,0 STARLINK-3918,1 52486U 22049AM  23200.09548146  .00000618  00000-0  56884-4 0  9996,2 52486  53.2181  69.3512 0000995  99.0191 261.0914 15.08843384 66790,6917.87,95.437,540.423,539.047,0.0
52486.0,STARLINK-3918,PAYLOAD,2023-07-19 18:11:21,15.08833033,0.0001286,53.2162,66.3767,96.0555,264.0584,-5.1478e-05,-1.107e-05,0.0,0 STARLINK-3918,1 52486U 22049AM  23200.75789344 -.00001107  00000-0 -51478-4 0  9996,2 52486  53.2162  66.3767 0001286  96.0555 264.0584 15.08833033 66890,6917.902,95.438,540.656,538.877,0.0
52486.0,STARLINK-3918,PAYLOAD,2023-07-21 00:23:40,15.08849634,9.47e-05,53.2185,60.728,105.7283,254.3813,0.00015084,2.114e-05,0.0,0 STARLINK-3918,1 52486U 22049AM  23202.01643936  .00002114  00000-0  15084-3 0  9992,2 52486  53.2185  60.7280 0000947 105.7283 254.3813 15.08849634 67085,6917.851,95.437,540.371,539.061,0.0
52486.0,STARLINK-3918,PAYLOAD,2023-07-21 16:17:32,15.08843338,0.0001068,53.2195,57.7563,106.7695,253.3414,0.00011542,1.55e-05,0.0,0 STARLINK-3918,1 52486U 22049AM  23202.67884543  .00001550  00000-0  11542-3 0  9993,2 52486  53.2195  57.7563 0001068 106.7695 253.3414 15.08843338 67181,6917.87,95.437,540.474,538.996,0.0
52486.0,STARLINK-3918,PAYLOAD,2023-07-24 12:39:07,15.08847199,0.000145,53.2171,44.9661,89.7782,270.3377,-3.275e-05,-8.09e-06,0.0,0 STARLINK-3918,1 52486U 22049AM  23205.52716751 -.00000809  00000-0 -32750-4 0  9998,2 52486  53.2171  44.9661 0001450  89.7782 270.3377 15.08847199 67450,6917.858,95.437,540.726,538.72,0.0
52486.0,STARLINK-3918,PAYLOAD,2023-07-25 12:29:54,15.08834078,9.66e-05,53.2177,40.5065,92.2497,267.8606,6.4657e-05,7.41e-06,0.0,0 STARLINK-3918,1 52486U 22049AM  23206.52077424  .00000741  00000-0  64657-4 0  9990,2 52486  53.2177  40.5065 0000966  92.2497 267.8606 15.08834078 67604,6917.898,95.438,540.432,539.095,0.0
52486.0,STARLINK-3918,PAYLOAD,2023-07-26 12:20:41,15.08847786,0.000161,53.2143,36.0477,76.9689,283.1482,0.00018739,2.696e-05,0.0,0 STARLINK-3918,1 52486U 22049AM  23207.51436927  .00002696  00000-0  18739-3 0  9997,2 52486  53.2143  36.0477 0001610  76.9689 283.1482 15.08847786 67752,6917.857,95.437,540.835,538.608,0.0
52486.0,STARLINK-3918,PAYLOAD,2023-07-26 15:31:27,15.08845895,0.0001096,53.2148,35.4515,76.6725,283.4389,0.00012454,1.695e-05,0.0,0 STARLINK-3918,1 52486U 22049AM  23207.64684850  .00001695  00000-0  12454-3 0  9997,2 52486  53.2148  35.4515 0001096  76.6725 283.4389 15.08845895 67779,6917.862,95.437,540.486,538.969,0.0
52486.0,STARLINK-3918,PAYLOAD,2023-07-27 05:49:56,15.08824197,6.68e-05,53.217,32.7748,87.6626,272.4443,-0.00027332,-4.633e-05,0.0,0 STARLINK-3918,1 52486U 22049AM  23208.24301354 -.00004633  00000-0 -27332-3 0  9997,2 52486  53.2170  32.7748 0000668  87.6626 272.4443 15.08824197 68028,6917.929,95.439,540.256,539.332,0.0
52486.0,STARLINK-3918,PAYLOAD,2023-07-27 12:11:29,15.08824072,6.45e-05,53.2172,31.5851,89.4838,270.6228,-0.00017468,-3.065e-05,0.0,0 STARLINK-3918,1 52486U 22049AM  23208.50797634 -.00003065  00000-0 -17468-3 0  9993,2 52486  53.2172  31.5851 0000645  89.4838 270.6228 15.08824072 67901,6917.929,95.439,540.24,539.348,0.0
52486.0,STARLINK-3918,PAYLOAD,2023-07-27 15:22:15,15.08829449,6.47e-05,53.2171,30.9902,84.472,275.6346,-9.4299e-05,-1.788e-05,0.0,0 STARLINK-3918,1 52486U 22049AM  23208.64045549 -.00001788  00000-0 -94299-4 0  9997,2 52486  53.2171  30.9902 0000647  84.4720 275.6346 15.08829449 67928,6917.913,95.438,540.225,539.33,0.0
52486.0,STARLINK-3918,PAYLOAD,2023-07-28 05:40:43,15.08837723,8.7e-05,53.2166,28.3143,82.9934,277.1157,0.00025103,3.709e-05,0.0,0 STARLINK-3918,1 52486U 22049AM  23209.23661654  .00003709  00000-0  25103-3 0  9994,2 52486  53.2166  28.3143 0000870  82.9934 277.1157 15.08837723 68177,6917.887,95.438,540.354,539.15,0.0
52486.0,STARLINK-3918,PAYLOAD,2023-07-28 12:02:16,15.08840962,9.01e-05,53.2162,27.1253,67.2024,292.9063,0.00050432,7.748e-05,0.0,0 STARLINK-3918,1 52486U 22049AM  23209.50157822  .00007748  00000-0  50432-3 0  9991,2 52486  53.2162  27.1253 0000901  67.2024 292.9063 15.08840962 68050,6917.877,95.437,540.366,539.119,0.0
52486.0,STARLINK-3918,PAYLOAD,2023-07-28 21:34:34,15.08856886,9.21e-05,53.2167,25.3414,59.5775,300.5308,0.00090217,0.00014106,0.0,0 STARLINK-3918,1 52486U 22049AM  23209.89901545  .00014106  00000-0  90217-3 0  9993,2 52486  53.2167  25.3414 0000921  59.5775 300.5308 15.08856886 68277,6917.829,95.436,540.331,539.057,0.0
52486.0,STARLINK-3918,PAYLOAD,2023-07-29 18:14:35,15.08850954,9.42e-05,53.217,21.4759,65.9386,294.1705,0.00040998,6.245e-05,0.0,0 STARLINK-3918,1 52486U 22049AM  23210.76013373  .00006245  00000-0  40998-3 0  9990,2 52486  53.2170  21.4759 0000942  65.9386 294.1705 15.08850954 68406,6917.847,95.437,540.364,539.06,0.0
52486.0,STARLINK-3918,PAYLOAD,2023-07-30 18:05:22,15.08849668,9.96e-05,53.2182,17.0156,75.6439,284.4663,0.00024582,3.628e-05,0.0,0 STARLINK-3918,1 52486U 22049AM  23211.75373250  .00003628  00000-0  24582-3 0  9996,2 52486  53.2182  17.0156 0000996  75.6439 284.4663 15.08849668 68558,6917.851,95.437,540.405,539.027,0.0
